start=new Date('2022-09-03T00:00:00.000Z').valueOf();
sats=[{"TLE_LINE2":"2 48110  53.0538 165.1257 0001662  69.3181 290.7986 15.06397911 79054","ECCENTRICITY":"0.00016620","CLASSIFICATION_TYPE":"U","NORAD_CAT_ID":"48110","EPOCH":"2022-09-02T19:44:43.141056","MEAN_ELEMENT_THEORY":"SGP4","MEAN_MOTION_DOT":"0.00001447","SITE":"AFETR","EPHEMERIS_TYPE":"0","FILE":"3555599","MEAN_MOTION":"15.06397911","CENTER_NAME":"EARTH","REF_FRAME":"TEME","TLE_LINE1":"1 48110U 21027U   22245.82272154  .00001447  00000-0  11601-3 0  9990","DECAY_DATE":null,"RA_OF_ASC_NODE":"165.1257","MEAN_ANOMALY":"290.7986","COUNTRY_CODE":"US","GP_ID":"211589448","OBJECT_TYPE":"PAYLOAD","PERIAPSIS":"546.069","REV_AT_EPOCH":"7905","INCLINATION":"53.0538","OBJECT_ID":"2021-027U","OBJECT_NAME":"STARLINK-2447","ARG_OF_PERICENTER":"69.3181","RCS_SIZE":"LARGE","PERIOD":"95.592","TIME_SYSTEM":"UTC","APOAPSIS":"548.371","SEMIMAJOR_AXIS":"6925.355","BSTAR":"0.00011601000000","ELEMENT_SET_NO":"999","LAUNCH_DATE":"2021-04-07","MEAN_MOTION_DDOT":"0.0000000000000"},{"FILE":"3555599","EPHEMERIS_TYPE":"0","SITE":"AFETR","CLASSIFICATION_TYPE":"U","ECCENTRICITY":"0.00014050","TLE_LINE2":"2 48111  53.0559 165.4375 0001405  76.5978 283.5168 15.06395921 79041","MEAN_MOTION_DOT":"0.00001028","NORAD_CAT_ID":"48111","EPOCH":"2022-09-02T17:58:33.152448","MEAN_ELEMENT_THEORY":"SGP4","COUNTRY_CODE":"US","MEAN_ANOMALY":"283.5168","RA_OF_ASC_NODE":"165.4375","DECAY_DATE":null,"REV_AT_EPOCH":"7904","PERIAPSIS":"546.253","OBJECT_TYPE":"PAYLOAD","GP_ID":"211589687","MEAN_MOTION":"15.06395921","TLE_LINE1":"1 48111U 21027V   22245.74899482  .00001028  00000-0  87877-4 0  9995","REF_FRAME":"TEME","CENTER_NAME":"EARTH","ARG_OF_PERICENTER":"76.5978","APOAPSIS":"548.199","TIME_SYSTEM":"UTC","PERIOD":"95.592","RCS_SIZE":"LARGE","INCLINATION":"53.0559","OBJECT_NAME":"STARLINK-2448","OBJECT_ID":"2021-027V","LAUNCH_DATE":"2021-04-07","ELEMENT_SET_NO":"999","MEAN_MOTION_DDOT":"0.0000000000000","BSTAR":"0.00008787700000","SEMIMAJOR_AXIS":"6925.361"},{"SITE":"AFETR","EPHEMERIS_TYPE":"0","FILE":"3555279","TLE_LINE2":"2 48112  53.0551 181.5428 0001716  65.0826 295.0341 15.06393425 78791","ECCENTRICITY":"0.00017160","CLASSIFICATION_TYPE":"U","MEAN_ELEMENT_THEORY":"SGP4","EPOCH":"2022-09-02T13:02:01.334400","NORAD_CAT_ID":"48112","MEAN_MOTION_DOT":"0.00001400","RA_OF_ASC_NODE":"181.5428","DECAY_DATE":null,"MEAN_ANOMALY":"295.0341","COUNTRY_CODE":"US","OBJECT_TYPE":"PAYLOAD","GP_ID":"211555658","REV_AT_EPOCH":"7879","PERIAPSIS":"546.045","MEAN_MOTION":"15.06393425","CENTER_NAME":"EARTH","REF_FRAME":"TEME","TLE_LINE1":"1 48112U 21027W   22245.54307100  .00001400  00000-0  11288-3 0  9991","ARG_OF_PERICENTER":"65.0826","RCS_SIZE":"LARGE","PERIOD":"95.593","APOAPSIS":"548.422","TIME_SYSTEM":"UTC","INCLINATION":"53.0551","OBJECT_ID":"2021-027W","OBJECT_NAME":"STARLINK-2449","ELEMENT_SET_NO":"999","LAUNCH_DATE":"2021-04-07","MEAN_MOTION_DDOT":"0.0000000000000","SEMIMAJOR_AXIS":"6925.369","BSTAR":"0.00011288000000"},{"RA_OF_ASC_NODE":"176.3724","DECAY_DATE":null,"MEAN_ANOMALY":"276.9381","COUNTRY_CODE":"US","GP_ID":"211556910","OBJECT_TYPE":"PAYLOAD","PERIAPSIS":"546.053","REV_AT_EPOCH":"7885","MEAN_MOTION":"15.06399630","CENTER_NAME":"EARTH","TLE_LINE1":"1 48113U 21027X   22245.54534995 -.00000117  00000-0  11025-4 0  9991","REF_FRAME":"TEME","SITE":"AFETR","EPHEMERIS_TYPE":"0","FILE":"3555279","TLE_LINE2":"2 48113  53.0552 176.3724 0001677  83.1799 276.9381 15.06399630 78853","ECCENTRICITY":"0.00016770","CLASSIFICATION_TYPE":"U","EPOCH":"2022-09-02T13:05:18.235680","MEAN_ELEMENT_THEORY":"SGP4","NORAD_CAT_ID":"48113","MEAN_MOTION_DOT":"-0.00000117","ELEMENT_SET_NO":"999","LAUNCH_DATE":"2021-04-07","MEAN_MOTION_DDOT":"0.0000000000000","SEMIMAJOR_AXIS":"6925.350","BSTAR":"0.00001102500000","ARG_OF_PERICENTER":"83.1799","RCS_SIZE":"LARGE","PERIOD":"95.592","TIME_SYSTEM":"UTC","APOAPSIS":"548.376","INCLINATION":"53.0552","OBJECT_NAME":"STARLINK-2450","OBJECT_ID":"2021-027X"},{"EPOCH":"2022-09-02T18:31:01.756704","MEAN_ELEMENT_THEORY":"SGP4","NORAD_CAT_ID":"48114","MEAN_MOTION_DOT":"0.00000612","TLE_LINE2":"2 48114  53.0536 170.3525 0001432  86.1412 273.9740 15.06398506 78973","CLASSIFICATION_TYPE":"U","ECCENTRICITY":"0.00014320","SITE":"AFETR","FILE":"3555599","EPHEMERIS_TYPE":"0","CENTER_NAME":"EARTH","TLE_LINE1":"1 48114U 21027Y   22245.77154811  .00000612  00000-0  59973-4 0  9995","REF_FRAME":"TEME","MEAN_MOTION":"15.06398506","REV_AT_EPOCH":"7897","PERIAPSIS":"546.226","GP_ID":"211588949","OBJECT_TYPE":"PAYLOAD","MEAN_ANOMALY":"273.9740","RA_OF_ASC_NODE":"170.3525","DECAY_DATE":null,"COUNTRY_CODE":"US","OBJECT_NAME":"STARLINK-2451","OBJECT_ID":"2021-027Y","INCLINATION":"53.0536","RCS_SIZE":"LARGE","APOAPSIS":"548.210","TIME_SYSTEM":"UTC","PERIOD":"95.592","ARG_OF_PERICENTER":"86.1412","SEMIMAJOR_AXIS":"6925.353","BSTAR":"0.00005997300000","MEAN_MOTION_DDOT":"0.0000000000000","LAUNCH_DATE":"2021-04-07","ELEMENT_SET_NO":"999"},{"INCLINATION":"53.0553","OBJECT_NAME":"STARLINK-2452","OBJECT_ID":"2021-027Z","ARG_OF_PERICENTER":"70.8892","RCS_SIZE":"LARGE","TIME_SYSTEM":"UTC","APOAPSIS":"548.456","PERIOD":"95.592","SEMIMAJOR_AXIS":"6925.359","BSTAR":"0.00001064800000","LAUNCH_DATE":"2021-04-07","ELEMENT_SET_NO":"999","MEAN_MOTION_DDOT":"0.0000000000000","TLE_LINE2":"2 48115  53.0553 167.9123 0001779  70.8892 289.2289 15.06396502 78955","CLASSIFICATION_TYPE":"U","ECCENTRICITY":"0.00017790","NORAD_CAT_ID":"48115","MEAN_ELEMENT_THEORY":"SGP4","EPOCH":"2022-09-02T04:51:39.222720","MEAN_MOTION_DOT":"-0.00000123","SITE":"AFETR","FILE":"3555279","EPHEMERIS_TYPE":"0","MEAN_MOTION":"15.06396502","CENTER_NAME":"EARTH","TLE_LINE1":"1 48115U 21027Z   22245.20253730 -.00000123  00000-0  10648-4 0  9998","REF_FRAME":"TEME","MEAN_ANOMALY":"289.2289","DECAY_DATE":null,"RA_OF_ASC_NODE":"167.9123","COUNTRY_CODE":"US","PERIAPSIS":"545.992","REV_AT_EPOCH":"7895","GP_ID":"211555909","OBJECT_TYPE":"PAYLOAD"},{"ELEMENT_SET_NO":"999","LAUNCH_DATE":"2021-04-07","MEAN_MOTION_DDOT":"0.0000000000000","BSTAR":"0.00001740800000","SEMIMAJOR_AXIS":"6925.355","ARG_OF_PERICENTER":"78.2141","APOAPSIS":"548.464","TIME_SYSTEM":"UTC","PERIOD":"95.592","RCS_SIZE":"LARGE","INCLINATION":"53.0555","OBJECT_NAME":"STARLINK-2454","OBJECT_ID":"2021-027AA","COUNTRY_CODE":"US","MEAN_ANOMALY":"281.9049","RA_OF_ASC_NODE":"176.3741","DECAY_DATE":null,"REV_AT_EPOCH":"7846","PERIAPSIS":"545.975","GP_ID":"211527549","OBJECT_TYPE":"PAYLOAD","MEAN_MOTION":"15.06398008","TLE_LINE1":"1 48116U 21027AA  22245.54166649 -.00000022  00000-0  17408-4 0  9997","REF_FRAME":"TEME","CENTER_NAME":"EARTH","FILE":"3554986","EPHEMERIS_TYPE":"0","SITE":"AFETR","CLASSIFICATION_TYPE":"U","ECCENTRICITY":"0.00017970","TLE_LINE2":"2 48116  53.0555 176.3741 0001797  78.2141 281.9049 15.06398008 78469","MEAN_MOTION_DOT":"-0.00000022","EPOCH":"2022-09-02T12:59:59.984736","NORAD_CAT_ID":"48116","MEAN_ELEMENT_THEORY":"SGP4"},{"GP_ID":"211588198","OBJECT_TYPE":"PAYLOAD","PERIAPSIS":"546.264","REV_AT_EPOCH":"7918","RA_OF_ASC_NODE":"155.3219","DECAY_DATE":null,"MEAN_ANOMALY":"283.5744","COUNTRY_CODE":"US","CENTER_NAME":"EARTH","REF_FRAME":"TEME","TLE_LINE1":"1 48117U 21027AB  22245.77846188  .00000082  00000-0  24410-4 0  9992","MEAN_MOTION":"15.06396851","SITE":"AFETR","EPHEMERIS_TYPE":"0","FILE":"3555599","MEAN_ELEMENT_THEORY":"SGP4","EPOCH":"2022-09-02T18:40:59.106432","NORAD_CAT_ID":"48117","MEAN_MOTION_DOT":"0.00000082","TLE_LINE2":"2 48117  53.0546 155.3219 0001385  76.5399 283.5744 15.06396851 79180","ECCENTRICITY":"0.00013850","CLASSIFICATION_TYPE":"U","MEAN_MOTION_DDOT":"0.0000000000000","ELEMENT_SET_NO":"999","LAUNCH_DATE":"2021-04-07","SEMIMAJOR_AXIS":"6925.358","BSTAR":"0.00002441000000","RCS_SIZE":"LARGE","PERIOD":"95.592","APOAPSIS":"548.182","TIME_SYSTEM":"UTC","ARG_OF_PERICENTER":"76.5399","OBJECT_ID":"2021-027AB","OBJECT_NAME":"STARLINK-2455","INCLINATION":"53.0546"},{"GP_ID":"211589449","OBJECT_TYPE":"PAYLOAD","PERIAPSIS":"546.102","REV_AT_EPOCH":"7917","COUNTRY_CODE":"US","RA_OF_ASC_NODE":"155.5735","DECAY_DATE":null,"MEAN_ANOMALY":"288.6944","TLE_LINE1":"1 48118U 21027AC  22245.72411947  .00000363  00000-0  43245-4 0  9998","REF_FRAME":"TEME","CENTER_NAME":"EARTH","MEAN_MOTION":"15.06393906","EPHEMERIS_TYPE":"0","FILE":"3555599","SITE":"AFETR","MEAN_MOTION_DOT":"0.00000363","NORAD_CAT_ID":"48118","MEAN_ELEMENT_THEORY":"SGP4","EPOCH":"2022-09-02T17:22:43.922208","ECCENTRICITY":"0.00016320","CLASSIFICATION_TYPE":"U","TLE_LINE2":"2 48118  53.0550 155.5735 0001632  71.4222 288.6944 15.06393906 79170","MEAN_MOTION_DDOT":"0.0000000000000","LAUNCH_DATE":"2021-04-07","ELEMENT_SET_NO":"999","BSTAR":"0.00004324500000","SEMIMAJOR_AXIS":"6925.367","PERIOD":"95.593","TIME_SYSTEM":"UTC","APOAPSIS":"548.362","RCS_SIZE":"LARGE","ARG_OF_PERICENTER":"71.4222","OBJECT_NAME":"STARLINK-2458","OBJECT_ID":"2021-027AC","INCLINATION":"53.0550"},{"OBJECT_ID":"2021-027AD","OBJECT_NAME":"STARLINK-2459","INCLINATION":"53.0560","RCS_SIZE":"LARGE","APOAPSIS":"548.717","TIME_SYSTEM":"UTC","PERIOD":"95.593","ARG_OF_PERICENTER":"59.9750","SEMIMAJOR_AXIS":"6925.381","BSTAR":"0.00024882000000","MEAN_MOTION_DDOT":"0.0000000000000","LAUNCH_DATE":"2021-04-07","ELEMENT_SET_NO":"999","EPOCH":"2022-09-02T18:51:35.983296","MEAN_ELEMENT_THEORY":"SGP4","NORAD_CAT_ID":"48119","MEAN_MOTION_DOT":"0.00003425","TLE_LINE2":"2 48119  53.0560 155.2881 0002123  59.9750 300.1449 15.06389267 79179","CLASSIFICATION_TYPE":"U","ECCENTRICITY":"0.00021230","SITE":"AFETR","FILE":"3555599","EPHEMERIS_TYPE":"0","CENTER_NAME":"EARTH","TLE_LINE1":"1 48119U 21027AD  22245.78583314  .00003425  00000-0  24882-3 0  9990","REF_FRAME":"TEME","MEAN_MOTION":"15.06389267","PERIAPSIS":"545.776","REV_AT_EPOCH":"7917","OBJECT_TYPE":"PAYLOAD","GP_ID":"211589688","MEAN_ANOMALY":"300.1449","DECAY_DATE":null,"RA_OF_ASC_NODE":"155.2881","COUNTRY_CODE":"US"}];
